GLOBALSTAR M094 [+]     
1 39074U 13005C   23325.64688958 -.00000095  00000+0  48626-4 0  9995
2 39074  51.9933 128.3769 0001215 101.1652 258.9352 12.62269949499945
GLOBALSTAR M096 [+]     
1 39075U 13005D   23325.81851012 -.00000092  00000+0  66330-4 0  9997
2 39075  52.0048 175.9236 0001392  84.4782 275.6244 12.62266458498885
GLOBALSTAR M078 [+]     
1 39076U 13005E   23325.87113918  .00000031  00000+0  75049-3 0  9998
2 39076  51.9875 261.0509 0001316  18.4839 341.6075 12.62265525497517
GLOBALSTAR M095 [+]     
1 39077U 13005F   23325.18496914 -.00000086  00000+0  97382-4 0  9999
2 39077  51.9801 260.6229 0001345  42.9161 317.1810 12.62270822497288
GLOBALSTAR M087 [+]     
1 52888U 22064A   23325.85503321 -.00000091  00000+0  70988-4 0  9993
2 52888  51.9748 214.8168 0009036 190.9590 169.1115 13.37558563 69643
